UBAKUSAT                
1 43467U 98067NQ  19268.40824645  .00015549  00000-0  16214-3 0  9994
2 43467  51.6360 199.0797 0003187  92.6207 267.5153 15.64725246 78325
BATSU-CS1 (IRAZU)       
1 43468U 98067NR  19268.23455921  .00043317  00000-0  30031-3 0  9990
2 43468  51.6338 187.3425 0002378 131.0592 229.0613 15.74011349178446
CUBERRT                 
1 43546U 98067NU  19268.30976996  .00009083  00000-0  90276-4 0  9995
2 43546  51.6369 199.1718 0004475 138.9654 221.1679 15.66581256 68441
TEMPEST-D               
1 43547U 98067NV  19268.86794006  .00004594  00000-0  64742-4 0  9998
2 43547  51.6379 208.9165 0005939 129.5802 230.5716 15.58811007 68048
RAINCUBE                
1 43548U 98067NW  19268.42517375  .00015599  00000-0  17129-3 0  9996
2 43548  51.6354 204.4259 0005905 138.9840 221.1599 15.63388378 68519
HALOSAT                 
1 43549U 98067NX  19268.30610888  .00015392  00000-0  16997-3 0  9990
2 43549  51.6366 205.1519 0005642 140.9280 219.2123 15.63257700 68053
ENDUROSAT ONE           
1 43551U 98067NZ  19268.28115369  .00019727  00000-0  19929-3 0  9998
2 43551  51.6360 201.9815 0006023 148.8551 211.2802 15.65317765 68501
EQUISAT                 
1 43552U 98067PA  19268.28751982  .00015394  00000-0  16764-3 0  9996
2 43552  51.6374 204.3107 0006341 148.1888 211.9490 15.63612719 68434
AEROCUBE 12A            
1 43556U 18046C   19268.55344809  .00000756  00000-0  39120-4 0  9993
2 43556  51.6426 302.3534 0008839  64.9350 295.2547 15.28935655 66683
AEROCUBE 12B            
1 43557U 18046D   19268.57603503  .00001338  00000-0  59773-4 0  9998
2 43557  51.6423 302.4992 0008795  65.6412 294.5486 15.28774959 66635
UITMSAT-1               
1 43589U 98067PD  19268.27729643  .00016555  00000-0  17737-3 0  9995
2 43589  51.6346 204.9139 0005609 153.6418 206.4863 15.63968807 64161
MAYA-1                  
1 43590U 98067PE  19266.22653084  .00013563  00000-0  14666-3 0  9999
2 43590  51.6346 215.2248 0005693 145.9502 214.1859 15.63921799 63776
BHUTAN-1                
1 43591U 98067PF  19268.19435520  .00016856  00000-0  17995-3 0  9997
2 43591  51.6362 205.1473 0005803 155.1356 204.9920 15.64043821 64089
SIRIUSSAT-1             
1 43595U 98067PG  19268.87475140  .00014640  00000-0  16295-3 0  9999
2 43595  51.6350 203.6611 0004309 118.2205 241.9224 15.63107113 63340
SIRIUSSAT-2             
1 43596U 98067PH  19268.85146036  .00014907  00000-0  16687-3 0  9998
2 43596  51.6362 204.3012 0004791 118.8882 241.2593 15.62940919 63338
TANUSHA-3               
1 43597U 98067PJ  19268.86279521  .00020438  00000-0  20787-3 0  9998
2 43597  51.6345 201.2965 0004375 130.9682 229.1692 15.65129337 63379
SURFSAT                 
1 43614U 18070B   19268.90682039  .00002432  00000-0  65443-4 0  9994
2 43614  93.0313  44.6244 0013167 285.9321  74.0482 15.37878585 57656
CP7 (DAVE)              
1 43615U 18070C   19268.91817866  .00002183  00000-0  58940-4 0  9991
2 43615  93.0318  44.6288 0013377 285.2575  74.7200 15.37783098 57656
ELFIN-B                 
1 43616U 18070D   19268.88181495  .00003384  00000-0  88958-4 0  9996
2 43616  93.0278  44.5207 0014127 288.9776  70.9946 15.38557042 57664
ELFIN-A                 
1 43617U 18070E   19268.80743539  .00003440  00000-0  90273-4 0  9998
2 43617  93.0331  44.7823 0013297 285.6953  74.2833 15.38617467 57658
CUBEBEL-1 (BSUSAT-1)    
1 43666U 18083E   19268.85636866  .00000696  00000-0  37830-4 0  9995
2 43666  97.5156 292.6403 0014367 199.1312 285.5008 15.17724205 50325
DEBRISSAT-2             
1 43680U 98067PR  19268.26711590  .00028478  00000-0  27064-3 0  9999
2 43680  51.6351 203.3644 0004046 139.0874 221.0426 15.66619321 72020
CICERO 10               
1 43690U 18088A   19268.92260058  .00000765  00000-0  33846-4 0  9991
2 43690  85.0355 253.1682 0014250 195.3053 164.7759 15.19775846 48425
IRVINE01                
1 43693U 18088D   19268.72716347  .00001848  00000-0  79654-4 0  9999
2 43693  85.0332 252.6932 0018034 181.1708 178.9495 15.21680533 48424
PROXIMA I               
1 43694U 18088E   19268.75646916  .00000777  00000-0  32568-4 0  9990
2 43694  85.0299 252.4748 0019546 173.3189 186.8317 15.21502132 48446
PROXIMA II              
1 43696U 18088G   19268.75529699  .00000780  00000-0  32712-4 0  9995
2 43696  85.0300 252.4770 0019586 173.2918 186.8590 15.21506735 48434
FACSAT-1                
1 43721U 18096C   19268.85654467  .00001125  00000-0  45818-4 0  9991
2 43721  97.4516 338.5291 0017317 345.6498  14.4246 15.26492062 45861
CENTAURI-2              
1 43722U 18096D   19268.75604911  .00001416  00000-0  56483-4 0  9993
2 43722  97.4520 338.5129 0017477 346.4920  13.5848 15.26765247 45847
INNOSAT-2               
1 43738U 18096V   19268.87271957  .00001990  00000-0  72853-4 0  9999
2 43738  97.4526 339.5867 0023926 355.1267   4.9736 15.29003992 45932
SIRION PATHFINDER-2     
1 43759U 18099B   19268.83425479 -.00000003  00000-0  49541-5 0  9995
2 43759  97.7375 339.5653 0014133 356.3757   3.7359 14.95164613 44230
CORVUS-BC 4             
1 43767U 18099K   19268.94420968  .00000489  00000-0  50458-4 0  9999
2 43767  97.7359 339.3666 0011627   0.6983 359.4251 14.94605210 44243
MOVE-II                 
1 43780U 18099Y   19268.65496446  .00000097  00000-0  14055-4 0  9994
2 43780  97.7368 339.2930 0013578   8.0994 352.0443 14.95128216 44195
SPACEBEE-7              
1 43816U 18099BL  19268.71697040 -.00000102  00000-0 -39700-5 0  9998
2 43816  97.7383 339.5723 0013108 352.6492   7.4535 14.95468665 43776
SPACEBEE-5              
1 43817U 18099BM  19268.88621976  .00001234  00000-0  11576-3 0  9996
2 43817  97.7411 339.8648 0012623 353.5877   6.5180 14.95776002 43803
SPACEBEE-6              
1 43818U 18099BN  19268.43875296  .00000137  00000-0  17548-4 0  9991
2 43818  97.7393 339.3379 0013075 354.1475   5.9591 14.95568537 43881
SHIELDS 1               
1 43850U 18104B   19268.65378448  .00000041  00000-0  00000+0 0  9999
2 43850  85.0325 351.0521 0014105 335.6632  24.3943 15.21146626 43063
STF-1                   
1 43852U 18104D   19268.75383870  .00000041  00000-0  00000-0 0  9998
2 43852  85.0322 351.3050 0013818 350.8622   9.2460 15.20742234 43062
ZACUBE-2                
1 43907U 18111AH  19268.93784924  .00000486  00000-0  22648-4 0  9991
2 43907  97.2805 171.4045 0021877   5.8632 354.2858 15.24269176 41561
LUME 1                  
1 43908U 18111AJ  19268.78822827  .00000925  00000-0  40268-4 0  9996
2 43908  97.2804 171.2990 0021830   6.4747 353.6769 15.24479043 41549
AOBA VELOX-IV           
1 43940U 19003J   19268.83241615  .00001280  00000-0  55172-4 0  9994
2 43940  97.2680 323.7731 0026251  82.9426   7.0440 15.24055534 38186
CATSAT-2                
1 44029U 98067PV  19268.38235196  .00011744  00000-0  16030-3 0  9992
2 44029  51.6380 216.9445 0005022 148.2780 211.8516 15.57953380 36957
DELPHINI                
1 44030U 98067PW  19268.87962658  .00011456  00000-0  15533-3 0  9995
2 44030  51.6364 214.2419 0004998 145.6718 214.4598 15.58161142 37000
UNITE                   
1 44031U 98067PX  19268.85972475  .00007317  00000-0  10720-3 0  9996
2 44031  51.6380 215.6177 0003713 140.5143 219.6120 15.56711892 36980
TECHEDSAT 8             
1 44032U 98067PY  19268.48495102  .00036182  00000-0  38394-3 0  9992
2 44032  51.6362 211.6058 0004270 135.0088 225.1253 15.63711348 36984
CATSAT-1                
1 44033U 98067PZ  19268.38223538  .00012104  00000-0  16506-3 0  9993
2 44033  51.6381 216.9447 0004823 147.9192 212.2095 15.57945069 36868
RAAVANA-1               
1 44329U 98067QE  19268.26683303  .00007937  00000-0  13195-3 0  9997
2 44329  51.6396 223.6682 0008038  88.9527 271.2384 15.53042093 15578
UGUISU                  
1 44330U 98067QF  19268.84844387  .00007469  00000-0  12476-3 0  9995
2 44330  51.6396 220.8020 0008017  89.9788 270.2121 15.53009986 15642
NEPALISAT-1             
1 44331U 98067QG  19268.84369800  .00007634  00000-0  12701-3 0  9993
2 44331  51.6397 220.7711 0008053  92.5129 267.6783 15.53085528 15650
SPOOQY-1                
1 44332U 98067QH  19268.84141972  .00007455  00000-0  12411-3 0  9991
2 44332  51.6395 220.7541 0006828  93.8949 266.2821 15.53112909 15610
SPACEBEE-9              
1 44370U 19037F   19268.91836020  .00004487  00000-0  11897-3 0  9995
2 44370  45.0141 156.1864 0014798  61.6326 298.6045 15.39796876 13626
SPACEBEE-8              
1 44371U 19037G   19268.89823038  .00009025  00000-0  22502-3 0  9996
2 44371  45.0154 156.0412 0014370  64.3716 295.8718 15.40532783 13610
MOVE-IIB                
1 44398U 19038N   19268.84658369  .00001152  00000-0  71049-4 0  9998
2 44398  97.4984 229.2007 0024694 325.9363  34.0281 15.11706254 12440
SONATE                  
1 44400U 19038Q   19268.91145569  .00000515  00000-0  33927-4 0  9998
2 44400  97.4998 229.2728 0024419 323.6082  36.3487 15.11682443 12454
LUCKY-7                 
1 44406U 19038W   19268.83509649  .00000625  00000-0  40131-4 0  9995
2 44406  97.4996 229.2206 0023924 323.9521  36.0095 15.11876041 12439
BEESAT 9                
1 44412U 19038AC  19268.83779445  .00000834  00000-0  52339-4 0  9990
2 44412  97.4994 229.2154 0022234 330.3663  29.6306 15.11841310 12139
JAISAT-1                
1 44419U 19038F   19268.87699112  .00000658  00000-0  41552-4 0  9992
2 44419  97.4996 229.3172 0021091 330.2032  29.7996 15.12332873 12459
SWIATOWID               
1 44426U 98067QL  19268.76105949  .00010387  00000-0  17135-3 0  9996
2 44426  51.6433 221.5689 0005601  59.2238  12.4581 15.52885118 13120
KRAKSAT                 
1 44427U 98067QM  19268.89055669  .00006395  00000-0  11074-3 0  9994
2 44427  51.6409 221.0906 0004769  55.0926 305.0511 15.52286375 13183
VCC A                   
1 44428U 98067QN  19267.46138571  .00007142  00000-0  12146-3 0  9993
2 44428  51.6408 228.0469 0004148  67.5147 292.6282 15.52596165 12960
